METEOR-M 2              
1 40069U 14037A   22148.88531632  .00000024  00000+0  30143-4 0  9997
2 40069  98.4323 167.5816 0006340  30.0728 330.0819 14.20709249409080
HIMAWARI-8              
1 40267U 14060A   22148.69918718 -.00000270  00000+0  00000+0 0  9994
2 40267   0.0582 116.9826 0000678 328.6331 192.9669  1.00271452 27919
FENGYUN 2G              
1 40367U 14090A   22148.80172314 -.00000299  00000+0  00000+0 0  9996
2 40367   1.8878  89.6324 0001442 351.3663 193.8659  1.00272844 27158
METEOSAT-11 (MSG-4)     
1 40732U 15034A   22146.62032478 -.00000007  00000+0  00000+0 0  9992
2 40732   0.2512  47.4082 0001367  56.0710   3.6515  1.00273495 25164
ELEKTRO-L 2             
1 41105U 15074A   22148.79910638 -.00000110  00000+0  00000+0 0  9999
2 41105   2.9412  88.3460 0001653  42.0595  29.0529  1.00272286 23673
HIMAWARI-9              
1 41836U 16064A   22148.86592354 -.00000269  00000+0  00000+0 0  9994
2 41836   0.0166 351.9660 0000807  63.8974 282.9870  1.00272845 20343
GOES 16                 
1 41866U 16071A   22148.85205781 -.00000242  00000+0  00000+0 0  9990
2 41866   0.0492 259.0636 0000624 206.3823  12.4690  1.00272589 20276
FENGYUN 4A              
1 41882U 16077A   22148.83799313 -.00000324  00000+0  00000+0 0  9992
2 41882   0.0786 295.9471 0004124 197.1422 159.5241  1.00271966 20135
CYGFM05                 
1 41884U 16078A   22148.82075938  .00002821  00000+0  14370-3 0  9996
2 41884  34.9565 324.0999 0016034 275.7361  84.1523 15.16249526301806
CYGFM04                 
1 41885U 16078B   22148.81381994  .00002895  00000+0  14531-3 0  9998
2 41885  34.9494 313.4851 0014452 291.2914  68.6255 15.16774833301843
CYGFM02                 
1 41886U 16078C   22148.87089654  .00002787  00000+0  13979-3 0  9998
2 41886  34.9589 315.3307 0015178 286.3002  73.6041 15.16815203301931
CYGFM01                 
1 41887U 16078D   22148.88609924  .00002862  00000+0  14653-3 0  9992
2 41887  34.9532 326.0537 0016500 275.6663  84.2167 15.16059379301760
CYGFM08                 
1 41888U 16078E   22148.81043014  .00002788  00000+0  14105-3 0  9997
2 41888  34.9503 319.2628 0015664 286.0446  73.8541 15.16504776301888
CYGFM06                 
1 41889U 16078F   22148.19319420  .00003646  00000+0  18238-3 0  9991
2 41889  34.9585 318.2391 0014118 280.6179  79.2943 15.16825189301779
CYGFM07                 
1 41890U 16078G   22148.83490031  .00003197  00000+0  16042-3 0  9994
2 41890  34.9517 313.0733 0013893 290.2370  69.6848 15.16762134301854
CYGFM03                 
1 41891U 16078H   22148.76762357  .00003632  00000+0  18207-3 0  9999
2 41891  34.9555 313.9589 0013441 287.7870  72.1375 15.16755775301835
FENGYUN 3D              
1 43010U 17072A   22148.89387381  .00000125  00000+0  81054-4 0  9998
2 43010  98.8145  93.5904 0001549 352.5631   7.5528 14.19205813234997
NOAA 20                 
1 43013U 17073A   22148.84033903  .00000043  00000+0  40912-4 0  9992
2 43013  98.7161  87.7017 0001526  95.6359 264.4991 14.19554430234444
GOES 17                 
1 43226U 18022A   22148.60943341  .00000103  00000+0  00000+0 0  9999
2 43226   0.0523 257.7395 0000223 112.7898 317.7992  1.00273255 15571
FENGYUN 2H              
1 43491U 18050A   22148.90024344 -.00000122  00000+0  00000+0 0  9992
2 43491   1.1004  97.4845 0003699  29.9517 162.1572  1.00275874 14593
METOP-C                 
1 43689U 18087A   22148.87247879  .00000089  00000+0  60365-4 0  9993
2 43689  98.6849 209.1640 0004074  97.2105 262.9536 14.21510911184525
GEO-KOMPSAT-2A          
1 43823U 18100A   22148.85741231 -.00000338  00000+0  00000+0 0  9991
2 43823   0.0247  69.5494 0001939  12.4507 241.2892  1.00269307 12811
METEOR-M2 2             
1 44387U 19038A   22148.89555414  .00000049  00000+0  40908-4 0  9992
2 44387  98.7210 109.8326 0001431  19.9943 340.1294 14.23710545150627
FENGYUN 3E              
1 49008U 21062A   22148.92057538  .00000006  00000+0  23299-4 0  9992
2 49008  98.7105 151.1884 0002826  59.6225 300.5235 14.19731539 46548
GOES 18                 
1 51850U 22021A   22148.60743564  .00000062  00000+0  00000+0 0  9994
2 51850   0.0264  77.9242 0001694 122.7333 148.0885  0.99635705   755
2022-043A               
1 52320U 22043A   22148.80599353  .00009578  00000+0  40608-3 0  9991
2 52320  97.4726 224.3411 0013594 153.2114 347.0285 15.23256679  4510
2022-043B               
1 52321U 22043B   22148.90113877  .00032861  00000+0  12808-2 0  9997
2 52321  97.4716 224.5058 0014388 181.3655 291.9821 15.25791819  4530
2022-043C               
1 52322U 22043C   22148.90679453  .00010020  00000+0  40497-3 0  9994
2 52322  97.4721 224.5005 0014324 181.5568 295.4798 15.24848553  4533
2022-043D               
1 52323U 22043D   22148.90349192  .00015377  00000+0  27934-3 0  9990
2 52323  97.5642 225.9089 0086818 276.6972 203.6244 15.45480800  4599
2022-043E               
1 52324U 22043E   22148.90781009  .00080018  00000+0  26860-2 0  9998
2 52324  97.4639 224.6214 0020882 206.5894 270.4012 15.30346460  4542
2022-043F               
1 52325U 22043F   22148.78144468  .00053874  00000+0  30594-2 0  9996
2 52325  97.2202 222.6592 0108808 114.4479 246.8083 15.07752316  4455
2022-043G               
1 52326U 22043G   22148.83136997  .00019710  00000+0  17330-2 0  9995
2 52326  97.2936 222.1378 0157325  65.7706 295.9776 14.87450767  4407
2022-043H               
1 52327U 22043H   22148.79844954  .00035631  00000+0  20551-2 0  9999
2 52327  97.7082 224.3878 0118531 117.1779 244.1489 15.06426213  4466
2022-043J               
1 52328U 22043J   22148.77554845  .00026233  00000+0  23170-2 0  9993
2 52328  97.7283 223.5720 0159219  67.8280 293.9565 14.87028485  4388
STARLINK-3889           
1 52331U 22045A   22148.88086873 -.00407298  00000+0 -64501-2 0  9991
2 52331  53.2116 293.6622 0002744  34.7677 325.3514 15.54231573  7102
STARLINK-3831           
1 52332U 22045B   22148.88166181 -.00210776  00000+0 -31712-2 0  9994
2 52332  53.2118 293.6383 0002161 134.5866 225.5323 15.54934743  7109
STARLINK-3847           
1 52333U 22045C   22148.91667824 -.00711885  00000+0 -12036-1 0  9993
2 52333  53.2170 293.4548 0001301  67.0337 132.1471 15.53510022  1309
STARLINK-3880           
1 52334U 22045D   22148.88070021 -.00326285  00000+0 -50464-2 0  9991
2 52334  53.2118 293.6703 0001449  26.5402 333.5684 15.54600692  7092
STARLINK-3814           
1 52335U 22045E   22148.88051369 -.00360534  00000+0 -56424-2 0  9993
2 52335  53.2121 293.6792 0001349  38.5270 321.5838 15.54399231  7104
STARLINK-3823           
1 52336U 22045F   22148.81612633 -.00307608  00000+0 -47288-2 0  9995
2 52336  53.2124 294.0078 0003798  39.8113 320.3177 15.54686301  7098
STARLINK-3797           
1 52337U 22045G   22148.81662127 -.00307879  00000+0 -48161-2 0  9990
2 52337  53.2112 293.9587 0001669  34.8524 325.2597 15.54225568  7099
STARLINK-3815           
1 52338U 22045H   22148.81563514 -.00356830  00000+0 -55590-2 0  9996
2 52338  53.2121 294.0230 0003046  44.1607 315.9648 15.54501002  7097
STARLINK-3792           
1 52339U 22045J   22148.81580084 -.00310148  00000+0 -47628-2 0  9993
2 52339  53.2123 294.0175 0001278  76.7392 283.3763 15.54738311  7096
STARLINK-3818           
1 52340U 22045K   22148.79968526  .00016766  00000+0  12334-3 0  9997
2 52340  53.2147 293.1810 0001106  49.2963 310.8153 15.73256461  7090
STARLINK-3843           
1 52341U 22045L   22148.91667824 -.00711785  00000+0 -12022-1 0  9996
2 52341  53.2171 293.5280 0001251  81.1162 122.8893 15.53537988  1304
STARLINK-3850           
1 52342U 22045M   22148.79948090  .00018228  00000+0  13373-3 0  9992
2 52342  53.2144 293.1804 0001495  54.6779 305.4381 15.73248786  7104
STARLINK-3849           
1 52343U 22045N   22148.81548096 -.00354014  00000+0 -55069-2 0  9993
2 52343  53.2137 294.0965 0002505  59.6679 300.4581 15.54535340  7091
STARLINK-3851           
1 52344U 22045P   22148.79926292  .00004079  00000+0  33424-4 0  9993
2 52344  53.2147 293.1793 0001369  48.9437 311.1701 15.73229993  7102
STARLINK-3852           
1 52345U 22045Q   22148.79980006  .00008980  00000+0  68247-4 0  9993
2 52345  53.2146 293.1820 0001395  49.5876 310.5265 15.73229151  7098
STARLINK-3812           
1 52346U 22045R   22148.79917410  .00008295  00000+0  63396-4 0  9992
2 52346  53.2144 293.1772 0001397  47.1213 312.9924 15.73224491  7106
STARLINK-3826           
1 52347U 22045S   22148.79959452  .00002936  00000+0  25315-4 0  9990
2 52347  53.2151 293.1808 0001922  60.3161 299.8050 15.73217830  7100
STARLINK-3829           
1 52348U 22045T   22148.79896655  .00006072  00000+0  47593-4 0  9993
2 52348  53.2144 293.1759 0001526  52.4382 307.6776 15.73228023  7104
STARLINK-3819           
1 52349U 22045U   22148.79938231  .00004964  00000+0  39733-4 0  9996
2 52349  53.2145 293.1789 0001402  66.5178 293.5989 15.73219854  7102
STARLINK-3754           
1 52350U 22045V   22148.91667824 -.00275069  00000+0 -20207-2 0  9991
2 52350  53.2159 292.5930 0001529  49.8360 257.9535 15.73193171  1307
STARLINK-3816           
1 52351U 22045W   22148.79906558  .00001033  00000+0  11775-4 0  9996
2 52351  53.2149 293.1786 0001747  42.3719 317.7436 15.73212838  7102
STARLINK-3838           
1 52352U 22045X   22148.79854723 -.00001679  00000+0 -75334-5 0  9993
2 52352  53.2144 293.1716 0002090  36.9351 323.1813 15.73205091  7107
STARLINK-3807           
1 52353U 22045Y   22148.79875165  .00011979  00000+0  89525-4 0  9995
2 52353  53.2145 293.1740 0001290  55.6589 304.4553 15.73232521  7109
STARLINK-3876           
1 52354U 22045Z   22148.79809205  .00018876  00000+0  13819-3 0  9993
2 52354  53.2147 293.1690 0001903  52.9057 307.2137 15.73270662  7104
STARLINK-3877           
1 52355U 22045AA  22148.79863465  .00013811  00000+0  10248-3 0  9999
2 52355  53.2150 293.1732 0001091  53.0112 307.1007 15.73240934  7102
